NORAD_CAT_ID,OBJECT_NAME,OBJECT_TYPE,EPOCH,MEAN_MOTION,ECCENTRICITY,INCLINATION,RA_OF_ASC_NODE,ARG_OF_PERICENTER,MEAN_ANOMALY,BSTAR,MEAN_MOTION_DOT,MEAN_MOTION_DDOT,TLE_LINE0,TLE_LINE1,TLE_LINE2,SEMIMAJOR_AXIS,PERIOD,APOGEE,PERIGEE,DECAYED
56812.0,STARLINK-6065,PAYLOAD,2024-03-20 20:47:07,14.98316081,0.0002334,70.0028,336.7597,238.5863,121.5068,4.1711e-05,4.05e-06,0.0,0 STARLINK-6065,1 56812U 23078AX  24080.86605887  .00000405  00000-0  41711-4 0  9991,2 56812  70.0028 336.7597 0002334 238.5863 121.5068 14.98316081 45764,6950.236,96.108,573.723,570.479,0.0
56812.0,STARLINK-6065,PAYLOAD,2024-03-20 22:23:15,14.98324824,0.0002809,70.0,336.5839,270.571,89.5127,-0.00012184,-1.546e-05,0.0,0 STARLINK-6065,1 56812U 23078AX  24080.93281974 -.00001546  00000-0 -12184-3 0  9996,2 56812  70.0000 336.5839 0002809 270.5710  89.5127 14.98324824 45511,6950.209,96.107,574.026,570.122,0.0
56812.0,STARLINK-6065,PAYLOAD,2024-03-21 09:36:11,14.9832946,0.0002665,70.0,335.4061,269.2099,90.8755,-8.7787e-05,-1.14e-05,0.0,0 STARLINK-6065,1 56812U 23078AX  24081.40013659 -.00001140  00000-0 -87787-4 0  9994,2 56812  70.0000 335.4061 0002665 269.2099  90.8755 14.98329460 45840,6950.195,96.107,573.912,570.207,0.0
56812.0,STARLINK-6065,PAYLOAD,2024-03-21 22:25:15,14.98337768,0.0002451,70.0004,334.0611,259.8682,100.2201,-1.9687e-05,-3.28e-06,0.0,0 STARLINK-6065,1 56812U 23078AX  24081.93420797 -.00000328  00000-0 -19687-4 0  9998,2 56812  70.0004 334.0611 0002451 259.8682 100.2201 14.98337768 45668,6950.169,96.107,573.737,570.33,0.0
56812.0,STARLINK-6065,PAYLOAD,2024-03-22 03:13:39,14.98343739,0.0002589,69.9999,333.5546,256.9069,103.1801,4.5121e-05,4.46e-06,0.0,0 STARLINK-6065,1 56812U 23078AX  24082.13448119  .00000446  00000-0  45121-4 0  9990,2 56812  69.9999 333.5546 0002589 256.9069 103.1801 14.98343739 45953,6950.15,96.106,573.815,570.216,0.0
56812.0,STARLINK-6065,PAYLOAD,2024-03-22 20:51:09,14.98321873,0.0002694,69.9998,331.7029,272.1419,87.9431,3.2581e-05,2.96e-06,0.0,0 STARLINK-6065,1 56812U 23078AX  24082.86885651  .00000296  00000-0  32581-4 0  9995,2 56812  69.9998 331.7029 0002694 272.1419  87.9431 14.98321873 46060,6950.218,96.108,573.955,570.211,0.0
56812.0,STARLINK-6065,PAYLOAD,2024-03-22 22:27:17,14.98323137,0.0002581,69.9998,331.534,272.7863,87.3001,3.995e-05,3.84e-06,0.0,0 STARLINK-6065,1 56812U 23078AX  24082.93561577  .00000384  00000-0  39950-4 0  9996,2 56812  69.9998 331.5340 0002581 272.7863  87.3001 14.98323137 45812,6950.214,96.107,573.873,570.285,0.0
56812.0,STARLINK-6065,PAYLOAD,2024-03-23 22:29:17,14.98331209,0.000242,70.0008,329.011,242.4636,117.6278,-4.3398e-05,-6.11e-06,0.0,0 STARLINK-6065,1 56812U 23078AX  24083.93701348 -.00000611  00000-0 -43398-4 0  9995,2 56812  70.0008 329.0110 0002420 242.4636 117.6278 14.98331209 45966,6950.189,96.107,573.736,570.372,0.0
56812.0,STARLINK-6065,PAYLOAD,2024-03-24 01:41:33,14.98336356,0.000232,70.0012,328.6747,235.4522,124.6418,2.1121e-05,1.59e-06,0.0,0 STARLINK-6065,1 56812U 23078AX  24084.07052775  .00000159  00000-0  21121-4 0  9999,2 56812  70.0012 328.6747 0002320 235.4522 124.6418 14.98336356 46241,6950.173,96.107,573.651,570.426,0.0
56812.0,STARLINK-6065,PAYLOAD,2024-03-24 09:42:14,14.98336227,0.0002544,69.9993,327.8313,262.3961,97.6909,-6.2658e-05,-8.41e-06,0.0,0 STARLINK-6065,1 56812U 23078AX  24084.40432944 -.00000841  00000-0 -62658-4 0  9996,2 56812  69.9993 327.8313 0002544 262.3961  97.6909 14.98336227 46038,6950.174,96.107,573.807,570.271,0.0
56812.0,STARLINK-6065,PAYLOAD,2024-03-24 20:55:09,14.98344508,0.0002578,70.0006,326.6546,249.5436,110.5446,0.00017221,1.963e-05,0.0,0 STARLINK-6065,1 56812U 23078AX  24084.87163526  .00001963  00000-0  17221-3 0  9993,2 56812  70.0006 326.6546 0002578 249.5436 110.5446 14.98344508 46360,6950.148,96.106,573.805,570.221,0.0
56812.0,STARLINK-6065,PAYLOAD,2024-03-24 22:31:17,14.9834558,0.0002961,69.999,326.4844,266.9804,93.1016,0.00015706,1.782e-05,0.0,0 STARLINK-6065,1 56812U 23078AX  24084.93839483  .00001782  00000-0  15706-3 0  9997,2 56812  69.9990 326.4844 0002961 266.9804  93.1016 14.98345580 46119,6950.145,96.106,574.068,569.952,0.0
56812.0,STARLINK-6065,PAYLOAD,2024-03-25 09:44:14,14.98329248,0.0001973,70.0015,325.3076,270.7943,89.299,1.3312e-05,6.6e-07,0.0,0 STARLINK-6065,1 56812U 23078AX  24085.40572848  .00000066  00000-0  13312-4 0  9995,2 56812  70.0015 325.3076 0001973 270.7943  89.2990 14.98329248 46440,6950.195,96.107,573.431,570.689,0.0
56812.0,STARLINK-6065,PAYLOAD,2024-03-25 20:57:13,14.98304204,0.0002578,70.0006,324.1285,268.583,91.5034,-0.00031305,-3.824e-05,0.0,0 STARLINK-6065,1 56812U 23078AX  24085.87307504 -.00003824  00000-0 -31305-3 0  9999,2 56812  70.0006 324.1285 0002578 268.5830  91.5034 14.98304204 46519,6950.273,96.109,573.929,570.346,0.0
56812.0,STARLINK-6065,PAYLOAD,2024-03-25 22:33:21,14.98307215,0.0002754,69.9999,323.9592,271.901,88.1833,-0.00026859,-3.294e-05,0.0,0 STARLINK-6065,1 56812U 23078AX  24085.93983254 -.00003294  00000-0 -26859-3 0  9997,2 56812  69.9999 323.9592 0002754 271.9010  88.1833 14.98307215 46265,6950.263,96.108,574.042,570.214,0.0
56812.0,STARLINK-6065,PAYLOAD,2024-03-26 01:45:42,14.9825469,0.0002592,70.0003,323.6213,276.6286,83.4577,-0.00086661,-0.00010397,0.0,0 STARLINK-6065,1 56812U 23078AX  24086.07340437 -.00010397  00000-0 -86661-3 0  9992,2 56812  70.0003 323.6213 0002592 276.6286  83.4577 14.98254690 46540,6950.426,96.112,574.092,570.489,0.0
56812.0,STARLINK-6065,PAYLOAD,2024-03-26 09:46:17,14.98313823,0.0003274,69.9987,322.7798,258.1202,101.959,-0.00017346,-2.161e-05,0.0,0 STARLINK-6065,1 56812U 23078AX  24086.40715263 -.00002161  00000-0 -17346-3 0  9996,2 56812  69.9987 322.7798 0003274 258.1202 101.9590 14.98313823 46597,6950.243,96.108,574.383,569.832,0.0
56812.0,STARLINK-6065,PAYLOAD,2024-03-26 20:59:13,14.98334617,0.0002862,69.9991,321.6012,269.6274,90.4557,4.0488e-05,3.9e-06,0.0,0 STARLINK-6065,1 56812U 23078AX  24086.87445764  .00000390  00000-0  40488-4 0  9997,2 56812  69.9991 321.6012 0002862 269.6274  90.4557 14.98334617 46664,6950.179,96.107,574.033,570.054,0.0
56812.0,STARLINK-6065,PAYLOAD,2024-03-26 22:35:20,14.98342072,0.0002704,69.9992,321.433,267.6671,92.4178,-7.8427e-06,-1.87e-06,0.0,0 STARLINK-6065,1 56812U 23078AX  24086.94121412 -.00000187  00000-0 -78427-5 0  9997,2 56812  69.9992 321.4330 0002704 267.6671  92.4178 14.98342072 46418,6950.156,96.106,573.9,570.141,0.0
56812.0,STARLINK-6065,PAYLOAD,2024-03-27 08:12:09,14.98344387,0.0002849,69.9989,320.4234,271.0876,88.9957,-2.8591e-05,-4.34e-06,0.0,0 STARLINK-6065,1 56812U 23078AX  24087.34177138 -.00000434  00000-0 -28591-4 0  9999,2 56812  69.9989 320.4234 0002849 271.0876  88.9957 14.98344387 46733,6950.148,96.106,573.993,570.033,0.0
56812.0,STARLINK-6065,PAYLOAD,2024-03-27 21:01:13,14.98322369,0.0002871,69.999,319.0767,274.2327,85.8504,0.00034173,3.986e-05,0.0,0 STARLINK-6065,1 56812U 23078AX  24087.87585644  .00003986  00000-0  34173-3 0  9997,2 56812  69.9990 319.0767 0002871 274.2327  85.8504 14.98322369 46810,6950.216,96.107,574.077,570.086,0.0
56812.0,STARLINK-6065,PAYLOAD,2024-03-27 22:37:21,14.98324676,0.0002943,69.9989,318.9084,275.3838,84.6985,0.00033736,3.934e-05,0.0,0 STARLINK-6065,1 56812U 23078AX  24087.94261525  .00003934  00000-0  33736-3 0  9991,2 56812  69.9989 318.9084 0002943 275.3838  84.6985 14.98324676 46562,6950.209,96.107,574.12,570.029,0.0
56812.0,STARLINK-6065,PAYLOAD,2024-03-28 08:14:10,14.98329729,0.000293,69.9992,317.8987,274.2002,85.8822,0.00023279,2.686e-05,0.0,0 STARLINK-6065,1 56812U 23078AX  24088.34317491  .00002686  00000-0  23279-3 0  9994,2 56812  69.9992 317.8987 0002930 274.2002  85.8822 14.98329729 46627,6950.194,96.107,574.095,570.022,0.0
56812.0,STARLINK-6065,PAYLOAD,2024-03-28 21:03:14,14.98340088,0.0002771,70.0009,316.5534,278.1102,81.9743,-7.2946e-06,-1.8e-06,0.0,0 STARLINK-6065,1 56812U 23078AX  24088.87725558 -.00000180  00000-0 -72946-5 0  9995,2 56812  70.0009 316.5534 0002771 278.1102  81.9743 14.98340088 46967,6950.162,96.106,573.953,570.101,0.0
56812.0,STARLINK-6065,PAYLOAD,2024-03-28 22:39:22,14.98339607,0.0002536,70.001,316.3855,268.6134,91.4735,-2.5958e-05,-4.03e-06,0.0,0 STARLINK-6065,1 56812U 23078AX  24088.94401576 -.00000403  00000-0 -25958-4 0  9992,2 56812  70.0010 316.3855 0002536 268.6134  91.4735 14.98339607 46716,6950.163,96.106,573.791,570.266,0.0
56812.0,STARLINK-6065,PAYLOAD,2024-03-29 08:16:10,14.98370015,0.0002615,70.001,315.3744,274.9871,85.099,-0.0006338,-7.655e-05,0.0,0 STARLINK-6065,1 56812U 23078AX  24089.34456692 -.00007655  00000-0 -63380-3 0  9992,2 56812  70.0010 315.3744 0002615 274.9871  85.0990 14.98370015 47034,6950.069,96.104,573.752,570.117,0.0
56812.0,STARLINK-6065,PAYLOAD,2024-03-29 14:40:43,14.98336136,0.0002859,70.0,314.701,268.9931,91.09,-6.2626e-05,-8.4e-06,0.0,0 STARLINK-6065,1 56812U 23078AX  24089.61161347 -.00000840  00000-0 -62626-4 0  9994,2 56812  70.0000 314.7010 0002859 268.9931  91.0900 14.98336136 46811,6950.174,96.107,574.026,570.052,0.0
56812.0,STARLINK-6065,PAYLOAD,2024-03-29 21:05:15,14.98333914,0.0002578,70.0008,314.028,263.2213,96.8652,-2.168e-05,-3.52e-06,0.0,0 STARLINK-6065,1 56812U 23078AX  24089.87865254 -.00000352  00000-0 -21680-4 0  9993,2 56812  70.0008 314.0280 0002578 263.2213  96.8652 14.98333914 47112,6950.181,96.107,573.838,570.254,0.0
56812.0,STARLINK-6065,PAYLOAD,2024-03-29 22:41:23,14.98333019,0.0002464,70.0005,313.8599,255.1676,104.921,-7.1592e-05,-9.47e-06,0.0,0 STARLINK-6065,1 56812U 23078AX  24089.94541409 -.00000947  00000-0 -71592-4 0  9991,2 56812  70.0005 313.8599 0002464 255.1676 104.9210 14.98333019 46864,6950.184,96.107,573.761,570.336,0.0
56812.0,STARLINK-6065,PAYLOAD,2024-03-30 08:18:12,14.98336143,0.0002829,69.9997,312.8489,276.0467,84.037,-0.00014264,-1.795e-05,0.0,0 STARLINK-6065,1 56812U 23078AX  24090.34597279 -.00001795  00000-0 -14264-3 0  9997,2 56812  69.9997 312.8489 0002829 276.0467  84.0370 14.98336143 46926,6950.174,96.107,574.005,570.073,0.0
